[{"OBJECT_NAME":"ORBCOMM FM06","OBJECT_ID":"1997-084G","EPOCH":"2026-04-27T05:28:56.020224","MEAN_MOTION":14.47432609,"ECCENTRICITY":5.177e-5,"INCLINATION":45.0141,"RA_OF_ASC_NODE":298.0056,"ARG_OF_PERICENTER":72.1079,"MEAN_ANOMALY":97.3998,"EPHEMERIS_TYPE":0,"CLASSIFICATION_TYPE":"U","NORAD_CAT_ID":25118,"ELEMENT_SET_NO":999,"REV_AT_EPOCH":48700,"BSTAR":0.00043225259,"MEAN_MOTION_DOT":1.456e-5,"MEAN_MOTION_DDOT":0},{"OBJECT_NAME":"ORBCOMM FM04","OBJECT_ID":"1998-007C","EPOCH":"2026-04-27T09:23:28.975776","MEAN_MOTION":14.35634778,"ECCENTRICITY":0.0039302,"INCLINATION":107.9614,"RA_OF_ASC_NODE":64.889,"ARG_OF_PERICENTER":53.6287,"MEAN_ANOMALY":306.8469,"EPHEMERIS_TYPE":0,"CLASSIFICATION_TYPE":"U","NORAD_CAT_ID":25159,"ELEMENT_SET_NO":999,"REV_AT_EPOCH":46930,"BSTAR":0.00042858,"MEAN_MOTION_DOT":1.116e-5,"MEAN_MOTION_DDOT":0},{"OBJECT_NAME":"ORBCOMM FM19","OBJECT_ID":"1998-046C","EPOCH":"2026-04-27T08:07:17.574240","MEAN_MOTION":14.39392042,"ECCENTRICITY":0.0002347,"INCLINATION":44.9931,"RA_OF_ASC_NODE":125.2432,"ARG_OF_PERICENTER":7.4863,"MEAN_ANOMALY":6.8622,"EPHEMERIS_TYPE":0,"CLASSIFICATION_TYPE":"U","NORAD_CAT_ID":25415,"ELEMENT_SET_NO":999,"REV_AT_EPOCH":44945,"BSTAR":0.00036213,"MEAN_MOTION_DOT":9.94e-6,"MEAN_MOTION_DDOT":0},{"OBJECT_NAME":"ORBCOMM FM20","OBJECT_ID":"1998-046D","EPOCH":"2026-04-27T02:09:15.760800","MEAN_MOTION":14.37986711,"ECCENTRICITY":0.00017825,"INCLINATION":44.9925,"RA_OF_ASC_NODE":133.7885,"ARG_OF_PERICENTER":284.3473,"MEAN_ANOMALY":75.7177,"EPHEMERIS_TYPE":0,"CLASSIFICATION_TYPE":"U","NORAD_CAT_ID":25416,"ELEMENT_SET_NO":999,"REV_AT_EPOCH":44943,"BSTAR":0.0002321791,"MEAN_MOTION_DOT":5.66e-6,"MEAN_MOTION_DDOT":0},{"OBJECT_NAME":"ORBCOMM FM27","OBJECT_ID":"1998-053G","EPOCH":"2026-04-26T12:55:09.321312","MEAN_MOTION":14.3904132,"ECCENTRICITY":0.00014282,"INCLINATION":45.0048,"RA_OF_ASC_NODE":220.6485,"ARG_OF_PERICENTER":232.4441,"MEAN_ANOMALY":127.6278,"EPHEMERIS_TYPE":0,"CLASSIFICATION_TYPE":"U","NORAD_CAT_ID":25481,"ELEMENT_SET_NO":999,"REV_AT_EPOCH":44279,"BSTAR":0.00034515814,"MEAN_MOTION_DOT":9.33e-6,"MEAN_MOTION_DDOT":0},{"OBJECT_NAME":"ORBCOMM FM32","OBJECT_ID":"1999-065C","EPOCH":"2026-04-27T04:40:53.866560","MEAN_MOTION":14.37055727,"ECCENTRICITY":0.00043749,"INCLINATION":45.0162,"RA_OF_ASC_NODE":54.5885,"ARG_OF_PERICENTER":170.0963,"MEAN_ANOMALY":189.9972,"EPHEMERIS_TYPE":0,"CLASSIFICATION_TYPE":"U","NORAD_CAT_ID":25982,"ELEMENT_SET_NO":999,"REV_AT_EPOCH":37975,"BSTAR":0.00034250369,"MEAN_MOTION_DOT":8.84e-6,"MEAN_MOTION_DDOT":0},{"OBJECT_NAME":"ORBCOMM FM109","OBJECT_ID":"2014-040A","EPOCH":"2026-04-27T06:42:33.444000","MEAN_MOTION":14.58790321,"ECCENTRICITY":0.0001732,"INCLINATION":47.0043,"RA_OF_ASC_NODE":332.164,"ARG_OF_PERICENTER":334.9295,"MEAN_ANOMALY":25.1506,"EPHEMERIS_TYPE":0,"CLASSIFICATION_TYPE":"U","NORAD_CAT_ID":40086,"ELEMENT_SET_NO":999,"REV_AT_EPOCH":62691,"BSTAR":0.00014445,"MEAN_MOTION_DOT":5.11e-6,"MEAN_MOTION_DDOT":0},{"OBJECT_NAME":"ORBCOMM FM114","OBJECT_ID":"2015-081A","EPOCH":"2026-04-26T14:41:40.145280","MEAN_MOTION":14.58799723,"ECCENTRICITY":0.0002524,"INCLINATION":47.0045,"RA_OF_ASC_NODE":245.8327,"ARG_OF_PERICENTER":305.7737,"MEAN_ANOMALY":54.2914,"EPHEMERIS_TYPE":0,"CLASSIFICATION_TYPE":"U","NORAD_CAT_ID":41179,"ELEMENT_SET_NO":999,"REV_AT_EPOCH":55022,"BSTAR":0.00015226,"MEAN_MOTION_DOT":5.48e-6,"MEAN_MOTION_DDOT":0},{"OBJECT_NAME":"ORBCOMM FM110","OBJECT_ID":"2015-081D","EPOCH":"2026-04-27T01:55:53.379552","MEAN_MOTION":14.5882139,"ECCENTRICITY":0.00035767,"INCLINATION":47.0018,"RA_OF_ASC_NODE":243.0748,"ARG_OF_PERICENTER":207.9353,"MEAN_ANOMALY":152.1342,"EPHEMERIS_TYPE":0,"CLASSIFICATION_TYPE":"U","NORAD_CAT_ID":41182,"ELEMENT_SET_NO":999,"REV_AT_EPOCH":55016,"BSTAR":0.00017928987,"MEAN_MOTION_DOT":6.75e-6,"MEAN_MOTION_DDOT":0},{"OBJECT_NAME":"ORBCOMM FM118","OBJECT_ID":"2015-081E","EPOCH":"2026-04-27T07:41:43.297728","MEAN_MOTION":14.58819994,"ECCENTRICITY":0.0003191,"INCLINATION":47.0037,"RA_OF_ASC_NODE":242.2646,"ARG_OF_PERICENTER":175.0048,"MEAN_ANOMALY":185.087,"EPHEMERIS_TYPE":0,"CLASSIFICATION_TYPE":"U","NORAD_CAT_ID":41183,"ELEMENT_SET_NO":999,"REV_AT_EPOCH":55030,"BSTAR":0.00019808,"MEAN_MOTION_DOT":7.64e-6,"MEAN_MOTION_DDOT":0},{"OBJECT_NAME":"ORBCOMM FM112","OBJECT_ID":"2015-081F","EPOCH":"2026-04-27T09:24:33.367104","MEAN_MOTION":14.58815332,"ECCENTRICITY":0.0002665,"INCLINATION":46.9974,"RA_OF_ASC_NODE":150.4049,"ARG_OF_PERICENTER":307.0045,"MEAN_ANOMALY":53.0597,"EPHEMERIS_TYPE":0,"CLASSIFICATION_TYPE":"U","NORAD_CAT_ID":41184,"ELEMENT_SET_NO":999,"REV_AT_EPOCH":55153,"BSTAR":0.00014305,"MEAN_MOTION_DOT":5.04e-6,"MEAN_MOTION_DDOT":0},{"OBJECT_NAME":"ORBCOMM FM113","OBJECT_ID":"2015-081G","EPOCH":"2026-04-27T08:52:07.292640","MEAN_MOTION":14.58801206,"ECCENTRICITY":0.0002174,"INCLINATION":46.9993,"RA_OF_ASC_NODE":150.8896,"ARG_OF_PERICENTER":309.3918,"MEAN_ANOMALY":50.6775,"EPHEMERIS_TYPE":0,"CLASSIFICATION_TYPE":"U","NORAD_CAT_ID":41185,"ELEMENT_SET_NO":999,"REV_AT_EPOCH":55151,"BSTAR":0.00012525,"MEAN_MOTION_DOT":4.2e-6,"MEAN_MOTION_DDOT":0},{"OBJECT_NAME":"ORBCOMM FM108","OBJECT_ID":"2015-081J","EPOCH":"2026-04-27T06:19:33.990240","MEAN_MOTION":14.58792386,"ECCENTRICITY":0.0003255,"INCLINATION":47.0054,"RA_OF_ASC_NODE":62.9457,"ARG_OF_PERICENTER":316.4775,"MEAN_ANOMALY":43.5853,"EPHEMERIS_TYPE":0,"CLASSIFICATION_TYPE":"U","NORAD_CAT_ID":41187,"ELEMENT_SET_NO":999,"REV_AT_EPOCH":55264,"BSTAR":0.00018217,"MEAN_MOTION_DOT":6.89e-6,"MEAN_MOTION_DDOT":0},{"OBJECT_NAME":"ORBCOMM FM117","OBJECT_ID":"2015-081K","EPOCH":"2026-04-27T03:51:09.555264","MEAN_MOTION":14.58790145,"ECCENTRICITY":0.00036793,"INCLINATION":47.0022,"RA_OF_ASC_NODE":62.0829,"ARG_OF_PERICENTER":322.4601,"MEAN_ANOMALY":37.6028,"EPHEMERIS_TYPE":0,"CLASSIFICATION_TYPE":"U","NORAD_CAT_ID":41188,"ELEMENT_SET_NO":999,"REV_AT_EPOCH":55267,"BSTAR":0.0001361198,"MEAN_MOTION_DOT":4.71e-6,"MEAN_MOTION_DDOT":0},{"OBJECT_NAME":"ORBCOMM FM116","OBJECT_ID":"2015-081L","EPOCH":"2026-04-27T08:19:28.649568","MEAN_MOTION":14.58811942,"ECCENTRICITY":0.0002167,"INCLINATION":47.0008,"RA_OF_ASC_NODE":150.9927,"ARG_OF_PERICENTER":223.776,"MEAN_ANOMALY":136.2954,"EPHEMERIS_TYPE":0,"CLASSIFICATION_TYPE":"U","NORAD_CAT_ID":41189,"ELEMENT_SET_NO":999,"REV_AT_EPOCH":55151,"BSTAR":0.0001391,"MEAN_MOTION_DOT":4.86e-6,"MEAN_MOTION_DDOT":0}]
