ORBCOMM FM06            
1 25118U 97084G   26117.22842616  .00001456  00000+0  43225-3 0  9997
2 25118  45.0141 298.0056 0000517  72.1079  97.3998 14.47432609487007
ORBCOMM FM04            
1 25159U 98007C   26117.39130759  .00001116  00000+0  42858-3 0  9998
2 25159 107.9614  64.8890 0039302  53.6287 306.8469 14.35634778469301
ORBCOMM FM19            
1 25415U 98046C   26117.33839785  .00000994  00000+0  36213-3 0  9996
2 25415  44.9931 125.2432 0002347   7.4863   6.8622 14.39392042449459
ORBCOMM FM20            
1 25416U 98046D   26117.08976575  .00000566  00000+0  23218-3 0  9994
2 25416  44.9925 133.7885 0001782 284.3473  75.7177 14.37986711449432
ORBCOMM FM27            
1 25481U 98053G   26116.53830233  .00000933  00000+0  34516-3 0  9994
2 25481  45.0048 220.6485 0001428 232.4441 127.6278 14.39041320442791
ORBCOMM FM32            
1 25982U 99065C   26117.19506790  .00000884  00000+0  34250-3 0  9995
2 25982  45.0162  54.5885 0004374 170.0963 189.9972 14.37055727379752
ORBCOMM FM109           
1 40086U 14040A   26117.27955375  .00000511  00000+0  14445-3 0  9994
2 40086  47.0043 332.1640 0001732 334.9295  25.1506 14.58790321626918
ORBCOMM FM114           
1 41179U 15081A   26116.61227020  .00000548  00000+0  15226-3 0  9998
2 41179  47.0045 245.8327 0002524 305.7737  54.2914 14.58799723550224
ORBCOMM FM110           
1 41182U 15081D   26117.08047893  .00000675  00000+0  17929-3 0  9995
2 41182  47.0018 243.0748 0003576 207.9353 152.1342 14.58821390550162
ORBCOMM FM118           
1 41183U 15081E   26117.32064002  .00000764  00000+0  19808-3 0  9991
2 41183  47.0037 242.2646 0003191 175.0048 185.0870 14.58819994550305
ORBCOMM FM112           
1 41184U 15081F   26117.39205286  .00000504  00000+0  14305-3 0  9999
2 41184  46.9974 150.4049 0002665 307.0045  53.0597 14.58815332551538
ORBCOMM FM113           
1 41185U 15081G   26117.36952885  .00000420  00000+0  12525-3 0  9990
2 41185  46.9993 150.8896 0002174 309.3918  50.6775 14.58801206551517
ORBCOMM FM108           
1 41187U 15081J   26117.26358785  .00000689  00000+0  18217-3 0  9991
2 41187  47.0054  62.9457 0003255 316.4775  43.5853 14.58792386552647
ORBCOMM FM117           
1 41188U 15081K   26117.16052726  .00000471  00000+0  13612-3 0  9990
2 41188  47.0022  62.0829 0003679 322.4601  37.6028 14.58790145552674
ORBCOMM FM116           
1 41189U 15081L   26117.34685937  .00000486  00000+0  13910-3 0  9994
2 41189  47.0008 150.9927 0002167 223.7760 136.2954 14.58811942551510
